{"type": "FeatureCollection", "features": [ {"type": "Feature", "properties": {"norad_id": 40697, "name": "SENTINEL-2A", "group": "resource", "lat": -2.1594366263660767, "lon": 51.297525055771786, "alt_km": 792.2559844029429, "timestamp": "2025-12-04T07:39:35.827650+00:00", "meta": {"OBJECT_NAME": "SENTINEL-2A", "OBJECT_ID": "2015-028A", "EPOCH": "2025-12-03T23:16:42.776256", "MEAN_MOTION": 14.30821981, "ECCENTRICITY": 0.00010407, "INCLINATION": 98.5702, "RA_OF_ASC_NODE": 50.6275, "ARG_OF_PERICENTER": 93.6595, "MEAN_ANOMALY": 266.4707, "EPHEMERIS_TYPE": 0, "CLASSIFICATION_TYPE": "U", "NORAD_CAT_ID": 40697, "ELEMENT_SET_NO": 999, "REV_AT_EPOCH": 54581, "BSTAR": 0.00013854836, "MEAN_MOTION_DOT": 3.2e-06, "MEAN_MOTION_DDOT": 0}, "tle": {"line1": "1 40697U 15028A   25337.96993954  .00000320  00000+0  13855-3 0  9995", "line2": "2 40697  98.5702  50.6275 0001040  93.6595 266.4707 14.30821981545818"}}, "geometry": {"type": "Point", "coordinates": [51.297525055771786, -2.1594366263660767]}}, {"type": "Feature", "properties": {"norad_id": 40701, "name": "GAOFEN-8", "group": "resource", "lat": 30.297728942462562, "lon": 151.5230218244569, "alt_km": 455.8260157029681, "timestamp": "2025-12-04T07:39:35.827659+00:00", "meta": {"OBJECT_NAME": "GAOFEN-8", "OBJECT_ID": "2015-030A", "EPOCH": "2025-12-03T23:43:12.663264", "MEAN_MOTION": 15.3808805, "ECCENTRICITY": 0.00112512, "INCLINATION": 97.6905, "RA_OF_ASC_NODE": 155.7051, "ARG_OF_PERICENTER": 168.8389, "MEAN_ANOMALY": 191.3106, "EPHEMERIS_TYPE": 0, "CLASSIFICATION_TYPE": "U", "NORAD_CAT_ID": 40701, "ELEMENT_SET_NO": 999, "REV_AT_EPOCH": 58136, "BSTAR": 0.00091097561, "MEAN_MOTION_DOT": 0.00034245, "MEAN_MOTION_DDOT": 0}, "tle": {"line1": "1 40701U 15030A   25337.98834101  .00034245  00000+0  91098-3 0  9992", "line2": "2 40701  97.6905 155.7051 0011251 168.8389 191.3106 15.38088050581369"}}, "geometry": {"type": "Point", "coordinates": [151.5230218244569, 30.297728942462562]}}, {"type": "Feature", "properties": {"norad_id": 40718, "name": "CARBONITE 1 (CBNT-1)", "group": "resource", "lat": -25.734045511539254, "lon": -23.975368042248913, "alt_km": 616.8927523688462, "timestamp": "2025-12-04T07:39:35.827668+00:00", "meta": {"OBJECT_NAME": "CARBONITE 1 (CBNT-1)", "OBJECT_ID": "2015-032D", "EPOCH": "2025-12-04T00:15:18.406080", "MEAN_MOTION": 14.82678237, "ECCENTRICITY": 0.00138488, "INCLINATION": 97.6398, "RA_OF_ASC_NODE": 159.4393, "ARG_OF_PERICENTER": 210.9009, "MEAN_ANOMALY": 149.1392, "EPHEMERIS_TYPE": 0, "CLASSIFICATION_TYPE": "U", "NORAD_CAT_ID": 40718, "ELEMENT_SET_NO": 999, "REV_AT_EPOCH": 56041, "BSTAR": 0.00060113508, "MEAN_MOTION_DOT": 4.806e-05, "MEAN_MOTION_DDOT": 0}, "tle": {"line1": "1 40718U 15032D   25338.01062970  .00004806  00000+0  60114-3 0  9999", "line2": "2 40718  97.6398 159.4393 0013848 210.9009 149.1392 14.82678237560416"}}, "geometry": {"type": "Point", "coordinates": [-23.975368042248913, -25.734045511539254]}}, {"type": "Feature", "properties": {"norad_id": 40878, "name": "YAOGAN-27", "group": "resource", "lat": -79.66621271142252, "lon": 70.49821879042656, "alt_km": 1202.5761017811255, "timestamp": "2025-12-04T07:39:35.827678+00:00", "meta": {"OBJECT_NAME": "YAOGAN-27", "OBJECT_ID": "2015-040A", "EPOCH": "2025-12-03T23:00:16.027776", "MEAN_MOTION": 13.16059684, "ECCENTRICITY": 0.00077334, "INCLINATION": 100.1004, "RA_OF_ASC_NODE": 327.976, "ARG_OF_PERICENTER": 308.3537, "MEAN_ANOMALY": 51.6881, "EPHEMERIS_TYPE": 0, "CLASSIFICATION_TYPE": "U", "NORAD_CAT_ID": 40878, "ELEMENT_SET_NO": 999, "REV_AT_EPOCH": 49198, "BSTAR": 6.5652519e-05, "MEAN_MOTION_DOT": -1.7e-07, "MEAN_MOTION_DDOT": 0}, "tle": {"line1": "1 40878U 15040A   25337.95851884 -.00000017  00000+0  65653-4 0  9992", "line2": "2 40878 100.1004 327.9760 0007733 308.3537  51.6881 13.16059684491981"}}, "geometry": {"type": "Point", "coordinates": [70.49821879042656, -79.66621271142252]}}, {"type": "Feature", "properties": {"norad_id": 40894, "name": "GAOFEN-9 01", "group": "resource", "lat": 43.124427474793315, "lon": -155.1247127385354, "alt_km": 613.1333918541677, "timestamp": "2025-12-04T07:39:35.827687+00:00", "meta": {"OBJECT_NAME": "GAOFEN-9 01", "OBJECT_ID": "2015-047A", "EPOCH": "2025-12-04T00:34:11.453952", "MEAN_MOTION": 14.82388441, "ECCENTRICITY": 0.00289046, "INCLINATION": 97.6555, "RA_OF_ASC_NODE": 17.3555, "ARG_OF_PERICENTER": 61.7366, "MEAN_ANOMALY": 298.676, "EPHEMERIS_TYPE": 0, "CLASSIFICATION_TYPE": "U", "NORAD_CAT_ID": 40894, "ELEMENT_SET_NO": 999, "REV_AT_EPOCH": 55127, "BSTAR": 0.00028319899, "MEAN_MOTION_DOT": 2.233e-05, "MEAN_MOTION_DDOT": 0}, "tle": {"line1": "1 40894U 15047A   25338.02374368  .00002233  00000+0  28320-3 0  9993", "line2": "2 40894  97.6555  17.3555 0028904  61.7366 298.6760 14.82388441551273"}}, "geometry": {"type": "Point", "coordinates": [-155.1247127385354, 43.124427474793315]}}, {"type": "Feature", "properties": {"norad_id": 41026, "name": "YAOGAN-28", "group": "resource", "lat": 76.72924165161629, "lon": -30.828030941053225, "alt_km": 481.20386372243956, "timestamp": "2025-12-04T07:39:35.827696+00:00", "meta": {"OBJECT_NAME": "YAOGAN-28", "OBJECT_ID": "2015-064A", "EPOCH": "2025-12-03T23:20:21.440832", "MEAN_MOTION": 15.24113148, "ECCENTRICITY": 0.0011985, "INCLINATION": 97.2799, "RA_OF_ASC_NODE": 116.0141, "ARG_OF_PERICENTER": 155.0011, "MEAN_ANOMALY": 205.181, "EPHEMERIS_TYPE": 0, "CLASSIFICATION_TYPE": "U", "NORAD_CAT_ID": 41026, "ELEMENT_SET_NO": 999, "REV_AT_EPOCH": 56091, "BSTAR": 0.00065869028, "MEAN_MOTION_DOT": 0.0001599, "MEAN_MOTION_DDOT": 0}, "tle": {"line1": "1 41026U 15064A   25337.97247038  .00015990  00000+0  65869-3 0  9999", "line2": "2 41026  97.2799 116.0141 0011985 155.0011 205.1810 15.24113148560917"}}, "geometry": {"type": "Point", "coordinates": [-30.828030941053225, 76.72924165161629]}}, {"type": "Feature", "properties": {"norad_id": 41038, "name": "YAOGAN-29", "group": "resource", "lat": 9.12918955292353, "lon": 0.16482611012069806, "alt_km": 621.5416263653306, "timestamp": "2025-12-04T07:39:35.827706+00:00", "meta": {"OBJECT_NAME": "YAOGAN-29", "OBJECT_ID": "2015-069A", "EPOCH": "2025-12-03T23:31:16.097088", "MEAN_MOTION": 14.82866814, "ECCENTRICITY": 7.208e-05, "INCLINATION": 98.0228, "RA_OF_ASC_NODE": 1.1233, "ARG_OF_PERICENTER": 4.8914, "MEAN_ANOMALY": 355.2306, "EPHEMERIS_TYPE": 0, "CLASSIFICATION_TYPE": "U", "NORAD_CAT_ID": 41038, "ELEMENT_SET_NO": 999, "REV_AT_EPOCH": 54169, "BSTAR": 0.00010813084, "MEAN_MOTION_DOT": 8.22e-06, "MEAN_MOTION_DDOT": 0}, "tle": {"line1": "1 41038U 15069A   25337.98004742  .00000822  00000+0  10813-3 0  9998", "line2": "2 41038  98.0228   1.1233 0000720   4.8914 355.2306 14.82866814541699"}}, "geometry": {"type": "Point", "coordinates": [0.16482611012069806, 9.12918955292353]}}, {"type": "Feature", "properties": {"norad_id": 41167, "name": "KENT RIDGE 1", "group": "resource", "lat": 3.237504414131134, "lon": -74.15890622076493, "alt_km": 492.0758130465183, "timestamp": "2025-12-04T07:39:35.827715+00:00", "meta": {"OBJECT_NAME": "KENT RIDGE 1", "OBJECT_ID": "2015-077B", "EPOCH": "2025-12-03T04:51:29.321280", "MEAN_MOTION": 15.21515134, "ECCENTRICITY": 0.00086777, "INCLINATION": 14.9806, "RA_OF_ASC_NODE": 281.9029, "ARG_OF_PERICENTER": 355.7263, "MEAN_ANOMALY": 4.2984, "EPHEMERIS_TYPE": 0, "CLASSIFICATION_TYPE": "U", "NORAD_CAT_ID": 41167, "ELEMENT_SET_NO": 999, "REV_AT_EPOCH": 55118, "BSTAR": 0.0002495538, "MEAN_MOTION_DOT": 6.551e-05, "MEAN_MOTION_DDOT": 0}, "tle": {"line1": "1 41167U 15077B   25337.20242270  .00006551  00000+0  24955-3 0  9992", "line2": "2 41167  14.9806 281.9029 0008677 355.7263   4.2984 15.21515134551184"}}, "geometry": {"type": "Point", "coordinates": [-74.15890622076493, 3.237504414131134]}}, {"type": "Feature", "properties": {"norad_id": 41194, "name": "GAOFEN-4", "group": "resource", "lat": -0.09354944871461714, "lon": -65.99735187095071, "alt_km": 35790.65598071921, "timestamp": "2025-12-04T07:39:35.827728+00:00", "meta": {"OBJECT_NAME": "GAOFEN-4", "OBJECT_ID": "2015-083A", "EPOCH": "2025-12-03T20:03:59.764032", "MEAN_MOTION": 1.00273387, "ECCENTRICITY": 0.00037375, "INCLINATION": 0.146, "RA_OF_ASC_NODE": 80.7672, "ARG_OF_PERICENTER": 104.6053, "MEAN_ANOMALY": 294.2325, "EPHEMERIS_TYPE": 0, "CLASSIFICATION_TYPE": "U", "NORAD_CAT_ID": 41194, "ELEMENT_SET_NO": 999, "REV_AT_EPOCH": 3657, "BSTAR": 0, "MEAN_MOTION_DOT": -3.18e-06, "MEAN_MOTION_DDOT": 0}, "tle": {"line1": "1 41194U 15083A   25337.83610838 -.00000318  00000+0  00000+0 0  9994", "line2": "2 41194   0.1460  80.7672 0003737 104.6053 294.2325  1.00273387 36570"}}, "geometry": {"type": "Point", "coordinates": [-65.99735187095071, -0.09354944871461714]}}, {"type": "Feature", "properties": {"norad_id": 41240, "name": "JASON-3", "group": "resource", "lat": 16.268638213941582, "lon": -11.927666063853392, "alt_km": 1312.2505758420384, "timestamp": "2025-12-04T07:39:35.827738+00:00", "meta": {"OBJECT_NAME": "JASON-3", "OBJECT_ID": "2016-002A", "EPOCH": "2025-12-03T19:38:09.860352", "MEAN_MOTION": 12.87625977, "ECCENTRICITY": 0.00071402, "INCLINATION": 66.0392, "RA_OF_ASC_NODE": 176.5813, "ARG_OF_PERICENTER": 270.2896, "MEAN_ANOMALY": 89.7304, "EPHEMERIS_TYPE": 0, "CLASSIFICATION_TYPE": "U", "NORAD_CAT_ID": 41240, "ELEMENT_SET_NO": 999, "REV_AT_EPOCH": 46209, "BSTAR": 0.00012755963, "MEAN_MOTION_DOT": -3e-07, "MEAN_MOTION_DDOT": 0}, "tle": {"line1": "1 41240U 16002A   25337.81816968 -.00000030  00000+0  12756-3 0  9994", "line2": "2 41240  66.0392 176.5813 0007140 270.2896  89.7304 12.87625977462092"}}, "geometry": {"type": "Point", "coordinates": [-11.927666063853392, 16.268638213941582]}}]}